CCSDS_OMM_VERS = 2.0
CREATION_DATE  = 
ORIGINATOR     = 

OBJECT_NAME    = HULIANWANG DIGUI-136
OBJECT_ID      = 2025-311J
CENTER_NAME    = EARTH
REF_FRAME      = TEME
TIME_SYSTEM    = UTC
MEAN_ELEMENT_THEORY = SGP/SGP4

EPOCH          = 2026-01-19T12:31:24.282912
MEAN_MOTION    = 13.87669700
ECCENTRICITY   = .00004531
INCLINATION    = 50.0106
RA_OF_ASC_NODE = 298.0118
ARG_OF_PERICENTER = 348.0623
MEAN_ANOMALY   = 12.0264

EPHEMERIS_TYPE = 0
CLASSIFICATION_TYPE = U
NORAD_CAT_ID   = 67244
ELEMENT_SET_NO = 999
REV_AT_EPOCH   = 342
BSTAR          = .13236406E-3
MEAN_MOTION_DOT = .12E-6
MEAN_MOTION_DDOT = 0

CCSDS_OMM_VERS = 2.0
CREATION_DATE  = 
ORIGINATOR     = 

OBJECT_NAME    = CZ-8A R/B
OBJECT_ID      = 2025-311K
CENTER_NAME    = EARTH
REF_FRAME      = TEME
TIME_SYSTEM    = UTC
MEAN_ELEMENT_THEORY = SGP/SGP4

EPOCH          = 2026-01-19T11:58:23.809152
MEAN_MOTION    = 14.12608636
ECCENTRICITY   = .00889856
INCLINATION    = 50.0034
RA_OF_ASC_NODE = 294.5235
ARG_OF_PERICENTER = 166.5271
MEAN_ANOMALY   = 193.8042

EPHEMERIS_TYPE = 0
CLASSIFICATION_TYPE = U
NORAD_CAT_ID   = 67245
ELEMENT_SET_NO = 999
REV_AT_EPOCH   = 347
BSTAR          = .8250782E-4
MEAN_MOTION_DOT = .5E-7
MEAN_MOTION_DDOT = 0

CCSDS_OMM_VERS = 2.0
CREATION_DATE  = 
ORIGINATOR     = 

OBJECT_NAME    = FENGYUN 4C
OBJECT_ID      = 2025-312A
CENTER_NAME    = EARTH
REF_FRAME      = TEME
TIME_SYSTEM    = UTC
MEAN_ELEMENT_THEORY = SGP/SGP4

EPOCH          = 2026-01-19T18:00:00.792288
MEAN_MOTION    = 1.00264489
ECCENTRICITY   = .00023128
INCLINATION    = 0.0655
RA_OF_ASC_NODE = 237.9177
ARG_OF_PERICENTER = 55.8505
MEAN_ANOMALY   = 228.3324

EPHEMERIS_TYPE = 0
CLASSIFICATION_TYPE = U
NORAD_CAT_ID   = 67246
ELEMENT_SET_NO = 999
REV_AT_EPOCH   = 29
BSTAR          = 0
MEAN_MOTION_DOT = -.31E-5
MEAN_MOTION_DDOT = 0

CCSDS_OMM_VERS = 2.0
CREATION_DATE  = 
ORIGINATOR     = 

OBJECT_NAME    = CZ-3B R/B
OBJECT_ID      = 2025-312B
CENTER_NAME    = EARTH
REF_FRAME      = TEME
TIME_SYSTEM    = UTC
MEAN_ELEMENT_THEORY = SGP/SGP4

EPOCH          = 2026-01-20T05:33:28.929312
MEAN_MOTION    = 2.46026573
ECCENTRICITY   = .71917135
INCLINATION    = 28.3959
RA_OF_ASC_NODE = 324.5000
ARG_OF_PERICENTER = 194.9631
MEAN_ANOMALY   = 120.0413

EPHEMERIS_TYPE = 0
CLASSIFICATION_TYPE = U
NORAD_CAT_ID   = 67247
ELEMENT_SET_NO = 999
REV_AT_EPOCH   = 59
BSTAR          = .89086822E-3
MEAN_MOTION_DOT = .358656E-2
MEAN_MOTION_DDOT = .1317685E-5

CCSDS_OMM_VERS = 2.0
CREATION_DATE  = 
ORIGINATOR     = 

OBJECT_NAME    = 2025-313A
OBJECT_ID      = 2025-313A
CENTER_NAME    = EARTH
REF_FRAME      = TEME
TIME_SYSTEM    = UTC
MEAN_ELEMENT_THEORY = SGP/SGP4

EPOCH          = 2026-01-20T06:09:40.542336
MEAN_MOTION    = 14.66813414
ECCENTRICITY   = .02805684
INCLINATION    = 97.5620
RA_OF_ASC_NODE = 96.0371
ARG_OF_PERICENTER = 91.9586
MEAN_ANOMALY   = 271.3773

EPHEMERIS_TYPE = 0
CLASSIFICATION_TYPE = U
NORAD_CAT_ID   = 67248
ELEMENT_SET_NO = 999
REV_AT_EPOCH   = 333
BSTAR          = .20135827E-3
MEAN_MOTION_DOT = .1981E-4
MEAN_MOTION_DDOT = 0

CCSDS_OMM_VERS = 2.0
CREATION_DATE  = 
ORIGINATOR     = 

OBJECT_NAME    = 2025-313B
OBJECT_ID      = 2025-313B
CENTER_NAME    = EARTH
REF_FRAME      = TEME
TIME_SYSTEM    = UTC
MEAN_ELEMENT_THEORY = SGP/SGP4

EPOCH          = 2026-01-20T03:49:57.255744
MEAN_MOTION    = 14.73234102
ECCENTRICITY   = .02977262
INCLINATION    = 97.5311
RA_OF_ASC_NODE = 96.0625
ARG_OF_PERICENTER = 96.2949
MEAN_ANOMALY   = 267.2256

EPHEMERIS_TYPE = 0
CLASSIFICATION_TYPE = U
NORAD_CAT_ID   = 67249
ELEMENT_SET_NO = 999
REV_AT_EPOCH   = 333
BSTAR          = .39739709E-3
MEAN_MOTION_DOT = .5195E-4
MEAN_MOTION_DDOT = 0

CCSDS_OMM_VERS = 2.0
CREATION_DATE  = 
ORIGINATOR     = 

OBJECT_NAME    = 2025-313C
OBJECT_ID      = 2025-313C
CENTER_NAME    = EARTH
REF_FRAME      = TEME
TIME_SYSTEM    = UTC
MEAN_ELEMENT_THEORY = SGP/SGP4

EPOCH          = 2026-01-20T01:20:22.807392
MEAN_MOTION    = 14.84835368
ECCENTRICITY   = .0162559
INCLINATION    = 97.6354
RA_OF_ASC_NODE = 96.6438
ARG_OF_PERICENTER = 106.4475
MEAN_ANOMALY   = 255.4676

EPHEMERIS_TYPE = 0
CLASSIFICATION_TYPE = U
NORAD_CAT_ID   = 67250
ELEMENT_SET_NO = 999
REV_AT_EPOCH   = 334
BSTAR          = .23144931E-2
MEAN_MOTION_DOT = .24946E-3
MEAN_MOTION_DDOT = 0

CCSDS_OMM_VERS = 2.0
CREATION_DATE  = 
ORIGINATOR     = 

OBJECT_NAME    = 2025-313D
OBJECT_ID      = 2025-313D
CENTER_NAME    = EARTH
REF_FRAME      = TEME
TIME_SYSTEM    = UTC
MEAN_ELEMENT_THEORY = SGP/SGP4

EPOCH          = 2026-01-20T06:15:14.916384
MEAN_MOTION    = 14.88776995
ECCENTRICITY   = .01523544
INCLINATION    = 97.5866
RA_OF_ASC_NODE = 96.8281
ARG_OF_PERICENTER = 98.3321
MEAN_ANOMALY   = 263.5203

EPHEMERIS_TYPE = 0
CLASSIFICATION_TYPE = U
NORAD_CAT_ID   = 67251
ELEMENT_SET_NO = 999
REV_AT_EPOCH   = 338
BSTAR          = .42258327E-3
MEAN_MOTION_DOT = .4854E-4
MEAN_MOTION_DDOT = 0

CCSDS_OMM_VERS = 2.0
CREATION_DATE  = 
ORIGINATOR     = 

OBJECT_NAME    = ZORKIY-2M-VPE
OBJECT_ID      = 2025-313E
CENTER_NAME    = EARTH
REF_FRAME      = TEME
TIME_SYSTEM    = UTC
MEAN_ELEMENT_THEORY = SGP/SGP4

EPOCH          = 2026-01-20T05:37:32.179872
MEAN_MOTION    = 15.21740300
ECCENTRICITY   = .00114586
INCLINATION    = 97.4103
RA_OF_ASC_NODE = 97.3542
ARG_OF_PERICENTER = 140.1265
MEAN_ANOMALY   = 220.0815

EPHEMERIS_TYPE = 0
CLASSIFICATION_TYPE = U
NORAD_CAT_ID   = 67252
ELEMENT_SET_NO = 999
REV_AT_EPOCH   = 345
BSTAR          = .70851194E-3
MEAN_MOTION_DOT = .16034E-3
MEAN_MOTION_DDOT = 0

CCSDS_OMM_VERS = 2.0
CREATION_DATE  = 
ORIGINATOR     = 

OBJECT_NAME    = AIST-2T 1
OBJECT_ID      = 2025-313F
CENTER_NAME    = EARTH
REF_FRAME      = TEME
TIME_SYSTEM    = UTC
MEAN_ELEMENT_THEORY = SGP/SGP4

EPOCH          = 2026-01-20T03:02:20.184000
MEAN_MOTION    = 15.65673986
ECCENTRICITY   = .00106631
INCLINATION    = 97.1021
RA_OF_ASC_NODE = 97.4985
ARG_OF_PERICENTER = 157.0479
MEAN_ANOMALY   = 203.1261

EPHEMERIS_TYPE = 0
CLASSIFICATION_TYPE = U
NORAD_CAT_ID   = 67253
ELEMENT_SET_NO = 999
REV_AT_EPOCH   = 351
BSTAR          = .72598308E-3
MEAN_MOTION_DOT = .73718E-3
MEAN_MOTION_DDOT = 0

CCSDS_OMM_VERS = 2.0
CREATION_DATE  = 
ORIGINATOR     = 

OBJECT_NAME    = AIST-2T 2
OBJECT_ID      = 2025-313G
CENTER_NAME    = EARTH
REF_FRAME      = TEME
TIME_SYSTEM    = UTC
MEAN_ELEMENT_THEORY = SGP/SGP4

EPOCH          = 2026-01-20T03:05:23.531712
MEAN_MOTION    = 15.65136792
ECCENTRICITY   = .00101822
INCLINATION    = 97.1019
RA_OF_ASC_NODE = 97.4951
ARG_OF_PERICENTER = 161.3006
MEAN_ANOMALY   = 198.8630

EPHEMERIS_TYPE = 0
CLASSIFICATION_TYPE = U
NORAD_CAT_ID   = 67254
ELEMENT_SET_NO = 999
REV_AT_EPOCH   = 350
BSTAR          = .43522236E-3
MEAN_MOTION_DOT = .43048E-3
MEAN_MOTION_DDOT = 0

CCSDS_OMM_VERS = 2.0
CREATION_DATE  = 
ORIGINATOR     = 

OBJECT_NAME    = 2025-313H
OBJECT_ID      = 2025-313H
CENTER_NAME    = EARTH
REF_FRAME      = TEME
TIME_SYSTEM    = UTC
MEAN_ELEMENT_THEORY = SGP/SGP4

EPOCH          = 2026-01-20T04:36:26.886240
MEAN_MOTION    = 15.02196269
ECCENTRICITY   = .00915264
INCLINATION    = 97.3083
RA_OF_ASC_NODE = 96.3792
ARG_OF_PERICENTER = 118.6286
MEAN_ANOMALY   = 242.4184

EPHEMERIS_TYPE = 0
CLASSIFICATION_TYPE = U
NORAD_CAT_ID   = 67255
ELEMENT_SET_NO = 999
REV_AT_EPOCH   = 340
BSTAR          = .28334635E-3
MEAN_MOTION_DOT = .4026E-4
MEAN_MOTION_DDOT = 0

