HULIANWANG DIGUI-136    
1 67244U 25311J   26019.52180883  .00000012  00000+0  13236-3 0  9998
2 67244  50.0106 298.0118 0000453 348.0623  12.0264 13.87669700  3425
CZ-8A R/B               
1 67245U 25311K   26019.49888668  .00000005  00000+0  82508-4 0  9992
2 67245  50.0034 294.5235 0088985 166.5271 193.8042 14.12608636  3472
FENGYUN 4C              
1 67246U 25312A   26019.75000917 -.00000310  00000+0  00000+0 0  9998
2 67246   0.0655 237.9177 0002312  55.8505 228.3324  1.00264489   294
CZ-3B R/B               
1 67247U 25312B   26020.23158483  .00358656  13177-5  89087-3 0  9995
2 67247  28.3959 324.5000 7191713 194.9631 120.0413  2.46026573   590
2025-313A               
1 67248U 25313A   26020.25671924  .00001981  00000+0  20136-3 0  9990
2 67248  97.5620  96.0371 0280568  91.9586 271.3773 14.66813414  3338
2025-313B               
1 67249U 25313B   26020.15969046  .00005195  00000+0  39740-3 0  9997
2 67249  97.5311  96.0625 0297726  96.2949 267.2256 14.73234102  3332
2025-313C               
1 67250U 25313C   26020.05581953  .00024946  00000+0  23145-2 0  9991
2 67250  97.6354  96.6438 0162559 106.4475 255.4676 14.84835368  3342
2025-313D               
1 67251U 25313D   26020.26058931  .00004854  00000+0  42258-3 0  9993
2 67251  97.5866  96.8281 0152354  98.3321 263.5203 14.88776995  3383
ZORKIY-2M-VPE           
1 67252U 25313E   26020.23440023  .00016034  00000+0  70851-3 0  9991
2 67252  97.4103  97.3542 0011458 140.1265 220.0815 15.21740300  3459
AIST-2T 1               
1 67253U 25313F   26020.12662250  .00073718  00000+0  72598-3 0  9990
2 67253  97.1021  97.4985 0010663 157.0479 203.1261 15.65673986  3516
AIST-2T 2               
1 67254U 25313G   26020.12874458  .00043048  00000+0  43522-3 0  9994
2 67254  97.1019  97.4951 0010182 161.3006 198.8630 15.65136792  3505
2025-313H               
1 67255U 25313H   26020.19197785  .00004026  00000+0  28335-3 0  9991
2 67255  97.3083  96.3792 0091526 118.6286 242.4184 15.02196269  3401
